start=new Date('2022-07-05T00:00:00.000Z').valueOf();
sats=[{"PERIAPSIS":"540.566","RA_OF_ASC_NODE":"129.9312","TIME_SYSTEM":"UTC","INCLINATION":"53.0551","RCS_SIZE":"LARGE","APOAPSIS":"542.609","ARG_OF_PERICENTER":"48.5550","DECAY_DATE":null,"NORAD_CAT_ID":"45762","MEAN_MOTION":"15.08237523","TLE_LINE1":"1 45762U 20038AJ  22185.57637428  .00001215  00000-0  95878-4 0  9997","OBJECT_ID":"2020-038AJ","REF_FRAME":"TEME","SITE":"AFETR","ECCENTRICITY":"0.00014760","EPHEMERIS_TYPE":"0","GP_ID":"207414857","MEAN_MOTION_DDOT":"0.0000000000000","CENTER_NAME":"EARTH","OBJECT_TYPE":"PAYLOAD","MEAN_ELEMENT_THEORY":"SGP4","LAUNCH_DATE":"2020-06-13","PERIOD":"95.476","TLE_LINE2":"2 45762  53.0551 129.9312 0001476  48.5550 311.5567 15.08237523113905","CLASSIFICATION_TYPE":"U","BSTAR":"0.00009587800000","ELEMENT_SET_NO":"999","FILE":"3507746","MEAN_MOTION_DOT":"0.00001215","COUNTRY_CODE":"US","OBJECT_NAME":"STARLINK-1499","SEMIMAJOR_AXIS":"6919.723","MEAN_ANOMALY":"311.5567","REV_AT_EPOCH":"11390","EPOCH":"2022-07-04T13:49:58.737792"},{"OBJECT_NAME":"STARLINK-1501","SEMIMAJOR_AXIS":"6688.172","MEAN_ANOMALY":"318.3275","REV_AT_EPOCH":"11660","EPOCH":"2022-07-04T17:18:39.265920","LAUNCH_DATE":"2020-06-13","TLE_LINE2":"2 45763  53.0410 311.0848 0006470  41.8242 318.3275 15.87236370116608","BSTAR":"0.00042453000000","PERIOD":"90.724","CLASSIFICATION_TYPE":"U","ELEMENT_SET_NO":"999","MEAN_MOTION_DOT":"0.00114349","FILE":"3507746","COUNTRY_CODE":"US","CENTER_NAME":"EARTH","OBJECT_TYPE":"PAYLOAD","MEAN_ELEMENT_THEORY":"SGP4","EPHEMERIS_TYPE":"0","GP_ID":"207415099","MEAN_MOTION_DDOT":"0.0000000000000","ECCENTRICITY":"0.00064700","MEAN_MOTION":"15.87236370","OBJECT_ID":"2020-038AK","TLE_LINE1":"1 45763U 20038AK  22185.72128780  .00114349  00000-0  42453-3 0  9994","REF_FRAME":"TEME","SITE":"AFETR","DECAY_DATE":null,"NORAD_CAT_ID":"45763","RA_OF_ASC_NODE":"311.0848","PERIAPSIS":"305.710","TIME_SYSTEM":"UTC","INCLINATION":"53.0410","RCS_SIZE":"LARGE","ARG_OF_PERICENTER":"41.8242","APOAPSIS":"314.364"},{"ECCENTRICITY":"0.00018190","SITE":"AFETR","REF_FRAME":"TEME","OBJECT_ID":"2020-038AL","TLE_LINE1":"1 45764U 20038AL  22185.83083381 -.00000519  00000-0 -15946-4 0  9997","MEAN_MOTION":"15.06393991","NORAD_CAT_ID":"45764","DECAY_DATE":null,"APOAPSIS":"548.492","RCS_SIZE":"LARGE","ARG_OF_PERICENTER":"65.6118","INCLINATION":"53.0547","TIME_SYSTEM":"UTC","PERIAPSIS":"545.972","RA_OF_ASC_NODE":"129.4409","EPOCH":"2022-07-04T19:56:24.041184","MEAN_ANOMALY":"294.5061","REV_AT_EPOCH":"11393","OBJECT_NAME":"STARLINK-1502","SEMIMAJOR_AXIS":"6925.367","MEAN_MOTION_DOT":"-0.00000519","FILE":"3507746","COUNTRY_CODE":"US","PERIOD":"95.593","TLE_LINE2":"2 45764  53.0547 129.4409 0001819  65.6118 294.5061 15.06393991113937","BSTAR":"-0.00001594600000","CLASSIFICATION_TYPE":"U","ELEMENT_SET_NO":"999","LAUNCH_DATE":"2020-06-13","MEAN_ELEMENT_THEORY":"SGP4","OBJECT_TYPE":"PAYLOAD","CENTER_NAME":"EARTH","MEAN_MOTION_DDOT":"0.0000000000000","GP_ID":"207413859","EPHEMERIS_TYPE":"0"},{"TLE_LINE1":"1 45766U 20038AN  22185.88612363 -.00001409  00000-0 -75696-4 0  9999","OBJECT_ID":"2020-038AN","MEAN_MOTION":"15.06393782","SITE":"AFETR","REF_FRAME":"TEME","ECCENTRICITY":"0.00022390","TIME_SYSTEM":"UTC","RA_OF_ASC_NODE":"129.1833","PERIAPSIS":"545.682","ARG_OF_PERICENTER":"64.5801","RCS_SIZE":"LARGE","APOAPSIS":"548.783","INCLINATION":"53.0546","DECAY_DATE":null,"NORAD_CAT_ID":"45766","ELEMENT_SET_NO":"999","TLE_LINE2":"2 45766  53.0546 129.1833 0002239  64.5801 295.5419 15.06393782113925","CLASSIFICATION_TYPE":"U","PERIOD":"95.593","BSTAR":"-0.00007569600000","LAUNCH_DATE":"2020-06-13","COUNTRY_CODE":"US","FILE":"3507746","MEAN_MOTION_DOT":"-0.00001409","REV_AT_EPOCH":"11392","MEAN_ANOMALY":"295.5419","SEMIMAJOR_AXIS":"6925.368","OBJECT_NAME":"STARLINK-1509","EPOCH":"2022-07-04T21:16:01.081632","GP_ID":"207414608","EPHEMERIS_TYPE":"0","MEAN_MOTION_DDOT":"0.0000000000000","CENTER_NAME":"EARTH","MEAN_ELEMENT_THEORY":"SGP4","OBJECT_TYPE":"PAYLOAD"},{"OBJECT_ID":"2020-038AP","TLE_LINE1":"1 45767U 20038AP  22185.54702034 -.00001162  00000-0 -59114-4 0  9991","MEAN_MOTION":"15.06390007","SITE":"AFETR","REF_FRAME":"TEME","ECCENTRICITY":"0.00023390","TIME_SYSTEM":"UTC","RA_OF_ASC_NODE":"130.7221","PERIAPSIS":"545.624","APOAPSIS":"548.864","RCS_SIZE":"LARGE","ARG_OF_PERICENTER":"63.3274","INCLINATION":"53.0554","DECAY_DATE":null,"NORAD_CAT_ID":"45767","ELEMENT_SET_NO":"999","TLE_LINE2":"2 45767  53.0554 130.7221 0002339  63.3274 296.7954 15.06390007113874","PERIOD":"95.593","CLASSIFICATION_TYPE":"U","BSTAR":"-0.00005911400000","LAUNCH_DATE":"2020-06-13","COUNTRY_CODE":"US","MEAN_MOTION_DOT":"-0.00001162","FILE":"3507746","REV_AT_EPOCH":"11387","MEAN_ANOMALY":"296.7954","SEMIMAJOR_AXIS":"6925.379","OBJECT_NAME":"STARLINK-1511","EPOCH":"2022-07-04T13:07:42.557376","GP_ID":"207415357","EPHEMERIS_TYPE":"0","MEAN_MOTION_DDOT":"0.0000000000000","CENTER_NAME":"EARTH","MEAN_ELEMENT_THEORY":"SGP4","OBJECT_TYPE":"PAYLOAD"},{"GP_ID":"207415599","EPHEMERIS_TYPE":"0","MEAN_MOTION_DDOT":"0.0000000000000","CENTER_NAME":"EARTH","MEAN_ELEMENT_THEORY":"SGP4","OBJECT_TYPE":"PAYLOAD","TLE_LINE2":"2 45768  53.0535 129.3005 0001923  72.3149 287.8049 15.06390126113932","PERIOD":"95.593","CLASSIFICATION_TYPE":"U","BSTAR":"0.00001009100000","ELEMENT_SET_NO":"999","LAUNCH_DATE":"2020-06-13","MEAN_MOTION_DOT":"-0.00000131","FILE":"3507746","COUNTRY_CODE":"US","MEAN_ANOMALY":"287.8049","REV_AT_EPOCH":"11393","OBJECT_NAME":"STARLINK-1521","SEMIMAJOR_AXIS":"6925.379","EPOCH":"2022-07-04T20:38:52.881792","TIME_SYSTEM":"UTC","RA_OF_ASC_NODE":"129.3005","PERIAPSIS":"545.912","APOAPSIS":"548.576","RCS_SIZE":"LARGE","ARG_OF_PERICENTER":"72.3149","INCLINATION":"53.0535","DECAY_DATE":null,"NORAD_CAT_ID":"45768","OBJECT_ID":"2020-038AQ","TLE_LINE1":"1 45768U 20038AQ  22185.86033428 -.00000131  00000-0  10091-4 0  9996","MEAN_MOTION":"15.06390126","SITE":"AFETR","REF_FRAME":"TEME","ECCENTRICITY":"0.00019230"},{"MEAN_MOTION_DOT":"-0.00000291","FILE":"3507746","COUNTRY_CODE":"US","TLE_LINE2":"2 45769  53.0547 150.4022 0002069  66.7195 293.4012 15.06384523113612","BSTAR":"-0.00000063140000","PERIOD":"95.593","CLASSIFICATION_TYPE":"U","ELEMENT_SET_NO":"999","LAUNCH_DATE":"2020-06-13","EPOCH":"2022-07-04T14:51:13.378176","MEAN_ANOMALY":"293.4012","REV_AT_EPOCH":"11361","OBJECT_NAME":"STARLINK-1459","SEMIMAJOR_AXIS":"6925.396","MEAN_MOTION_DDOT":"0.0000000000000","GP_ID":"207414359","EPHEMERIS_TYPE":"0","MEAN_ELEMENT_THEORY":"SGP4","OBJECT_TYPE":"PAYLOAD","CENTER_NAME":"EARTH","SITE":"AFETR","REF_FRAME":"TEME","OBJECT_ID":"2020-038AR","TLE_LINE1":"1 45769U 20038AR  22185.61890484 -.00000291  00000-0 -63140-6 0  9996","MEAN_MOTION":"15.06384523","ECCENTRICITY":"0.00020690","RCS_SIZE":"LARGE","APOAPSIS":"548.694","ARG_OF_PERICENTER":"66.7195","INCLINATION":"53.0547","TIME_SYSTEM":"UTC","RA_OF_ASC_NODE":"150.4022","PERIAPSIS":"545.828","NORAD_CAT_ID":"45769","DECAY_DATE":null},{"TIME_SYSTEM":"UTC","RA_OF_ASC_NODE":"108.8841","PERIAPSIS":"546.075","RCS_SIZE":"LARGE","ARG_OF_PERICENTER":"64.3958","APOAPSIS":"548.455","INCLINATION":"53.0559","DECAY_DATE":null,"NORAD_CAT_ID":"45770","OBJECT_ID":"2020-038AS","TLE_LINE1":"1 45770U 20038AS  22185.95338161 -.00003385  00000-0 -20851-3 0  9990","MEAN_MOTION":"15.06383202","SITE":"AFETR","REF_FRAME":"TEME","ECCENTRICITY":"0.00017180","GP_ID":"207414109","EPHEMERIS_TYPE":"0","MEAN_MOTION_DDOT":"0.0000000000000","CENTER_NAME":"EARTH","MEAN_ELEMENT_THEORY":"SGP4","OBJECT_TYPE":"PAYLOAD","ELEMENT_SET_NO":"999","TLE_LINE2":"2 45770  53.0559 108.8841 0001718  64.3958 295.7208 15.06383202114216","CLASSIFICATION_TYPE":"U","PERIOD":"95.593","BSTAR":"-0.00020851000000","LAUNCH_DATE":"2020-06-13","COUNTRY_CODE":"US","MEAN_MOTION_DOT":"-0.00003385","FILE":"3507746","REV_AT_EPOCH":"11421","MEAN_ANOMALY":"295.7208","SEMIMAJOR_AXIS":"6925.400","OBJECT_NAME":"STARLINK-1462","EPOCH":"2022-07-04T22:52:52.171104"},{"NORAD_CAT_ID":"45771","DECAY_DATE":null,"ARG_OF_PERICENTER":"64.0061","RCS_SIZE":"LARGE","APOAPSIS":"548.405","INCLINATION":"53.0552","TIME_SYSTEM":"UTC","PERIAPSIS":"546.109","RA_OF_ASC_NODE":"109.8243","ECCENTRICITY":"0.00016580","SITE":"AFETR","REF_FRAME":"TEME","OBJECT_ID":"2020-038AT","TLE_LINE1":"1 45771U 20038AT  22185.74791120 -.00003598  00000-0 -22285-3 0  9995","MEAN_MOTION":"15.06385819","MEAN_ELEMENT_THEORY":"SGP4","OBJECT_TYPE":"PAYLOAD","CENTER_NAME":"EARTH","MEAN_MOTION_DDOT":"0.0000000000000","GP_ID":"207414858","EPHEMERIS_TYPE":"0","EPOCH":"2022-07-04T17:56:59.527680","MEAN_ANOMALY":"296.1098","REV_AT_EPOCH":"11418","OBJECT_NAME":"STARLINK-1463","SEMIMAJOR_AXIS":"6925.392","MEAN_MOTION_DOT":"-0.00003598","FILE":"3507746","COUNTRY_CODE":"US","TLE_LINE2":"2 45771  53.0552 109.8243 0001658  64.0061 296.1098 15.06385819114186","PERIOD":"95.593","BSTAR":"-0.00022285000000","CLASSIFICATION_TYPE":"U","ELEMENT_SET_NO":"999","LAUNCH_DATE":"2020-06-13"},{"MEAN_MOTION":"15.06396712","TLE_LINE1":"1 45772U 20038AU  22185.93587676 -.00001266  00000-0 -66101-4 0  9992","OBJECT_ID":"2020-038AU","REF_FRAME":"TEME","SITE":"AFETR","ECCENTRICITY":"0.00015130","RA_OF_ASC_NODE":"108.9546","PERIAPSIS":"546.176","TIME_SYSTEM":"UTC","INCLINATION":"53.0560","ARG_OF_PERICENTER":"80.5107","RCS_SIZE":"LARGE","APOAPSIS":"548.271","DECAY_DATE":null,"NORAD_CAT_ID":"45772","LAUNCH_DATE":"2020-06-13","PERIOD":"95.592","TLE_LINE2":"2 45772  53.0560 108.9546 0001513  80.5107 279.6053 15.06396712114222","BSTAR":"-0.00006610100000","CLASSIFICATION_TYPE":"U","ELEMENT_SET_NO":"999","MEAN_MOTION_DOT":"-0.00001266","FILE":"3507746","COUNTRY_CODE":"US","OBJECT_NAME":"STARLINK-1470","SEMIMAJOR_AXIS":"6925.359","MEAN_ANOMALY":"279.6053","REV_AT_EPOCH":"11422","EPOCH":"2022-07-04T22:27:39.752064","EPHEMERIS_TYPE":"0","GP_ID":"207415100","MEAN_MOTION_DDOT":"0.0000000000000","CENTER_NAME":"EARTH","OBJECT_TYPE":"PAYLOAD","MEAN_ELEMENT_THEORY":"SGP4"}];
